OBJECT_NAME,OBJECT_ID,EPOCH,MEAN_MOTION,ECCENTRICITY,INCLINATION,RA_OF_ASC_NODE,ARG_OF_PERICENTER,MEAN_ANOMALY,EPHEMERIS_TYPE,CLASSIFICATION_TYPE,NORAD_CAT_ID,ELEMENT_SET_NO,REV_AT_EPOCH,BSTAR,MEAN_MOTION_DOT,MEAN_MOTION_DDOT
STARLINK-34852,2025-237X,2026-06-23T23:44:47.153760,15.30221504,.00005692,53.1590,266.0000,29.3821,330.7212,0,U,66135,999,3884,.48507205E-3,.14044E-3,0
STARLINK-35592,2025-237Y,2026-06-23T23:38:40.285536,15.34406589,.00010019,53.1587,265.2637,85.2317,274.8800,0,U,66136,999,3889,.5041506E-3,.16699E-3,0
STARLINK-35576,2025-237Z,2026-06-23T23:35:38.421312,15.34388555,.00021422,53.1585,265.2512,89.7442,270.3806,0,U,66137,999,3889,.1198285E-2,.40314E-3,0
STARLINK-35623,2025-237AA,2026-06-23T11:29:02.806080,15.30257640,.00009381,53.1590,268.4971,73.6405,286.4699,0,U,66138,999,3880,.93004688E-3,.27337E-3,0
STARLINK-35549,2025-237AB,2026-06-25T04:00:00.999072,15.30174900,.0001353,53.1577,260.1748,86.1831,102.9527,0,U,66139,999,585,.1899E-2,.56266E-3,0
STARLINK-35625,2025-237AC,2026-06-23T23:41:41.779104,15.34423367,.00008834,53.1593,265.2780,74.5625,285.5475,0,U,66140,999,3889,.61403324E-3,.20442E-3,0
STARLINK-35603,2025-237AD,2026-06-23T13:06:20.605248,15.34413850,.00006355,53.1584,267.5018,88.2051,271.9025,0,U,66141,999,3882,.51865308E-3,.17195E-3,0
STARLINK-35318,2025-240A,2026-06-24T01:03:38.298528,15.34387886,.00003617,53.1600,287.2675,85.9234,274.1810,0,U,66146,999,3834,.56644655E-3,.18803E-3,0
STARLINK-33948,2025-240B,2026-06-23T17:52:06.702528,15.30209935,.00013949,53.1580,290.3644,93.8583,266.2578,0,U,66147,999,3827,.48250568E-3,.13962E-3,0
STARLINK-35081,2025-240C,2026-06-23T17:08:36.366720,15.34442205,.00014381,53.1602,288.7524,85.8056,274.3111,0,U,66148,999,3824,.71153817E-3,.23773E-3,0
STARLINK-35601,2025-240D,2026-06-24T01:11:58.443072,15.30228900,.0000985,53.1610,288.7128,86.6898,273.4216,0,U,66149,999,3827,.58776619E-3,.17104E-3,0
STARLINK-35605,2025-240E,2026-06-23T17:29:18.278592,15.30173386,.00013306,53.1598,290.2633,81.3212,278.7939,0,U,66150,999,3822,-.24992159E-3,-.7747E-4,0
STARLINK-35540,2025-240F,2026-06-24T00:42:26.842176,15.34419830,.00013891,53.1599,287.1684,89.2658,270.8504,0,U,66151,999,3829,.78688385E-3,.2632E-3,0
STARLINK-35455,2025-240G,2026-06-24T00:48:30.042720,15.34399628,.00018855,53.1602,287.2008,81.1055,279.0161,0,U,66152,999,3829,.62841022E-3,.20915E-3,0
STARLINK-34752,2025-240H,2026-06-23T14:31:18.890400,15.34405231,.00008198,53.1582,289.4993,67.6454,292.4636,0,U,66153,999,3822,.5192162E-3,.1721E-3,0
STARLINK-34625,2025-240J,2026-06-23T17:42:59.768064,15.30218814,.0000954,53.1583,290.3220,74.3574,285.7532,0,U,66154,999,3827,.70064503E-3,.20461E-3,0
STARLINK-35580,2025-240K,2026-06-23T11:47:49.761024,15.34400870,.00004072,53.1596,289.5015,87.1922,272.9127,0,U,66155,999,3821,.50513036E-3,.16729E-3,0
STARLINK-35621,2025-240L,2026-06-25T04:00:00.999072,15.34299764,.0001189,53.1592,283.7110,95.9091,205.7733,0,U,66156,999,550,.26243E-2,.89064E-3,0
STARLINK-35594,2025-240M,2026-06-23T14:19:11.563104,15.34394724,.00009671,53.1593,289.4421,61.2010,298.9090,0,U,66157,999,3822,.51957609E-3,.17216E-3,0
STARLINK-35587,2025-240N,2026-06-23T14:31:49.797408,15.30207737,.00010634,53.1584,290.9169,88.4283,271.6839,0,U,66158,999,3820,-.45125048E-3,-.13702E-3,0
STARLINK-35586,2025-240P,2026-06-23T14:49:28.180992,15.34381428,.00009611,53.1569,289.5746,85.9150,274.1962,0,U,66159,999,3822,-.32264607E-3,-.11254E-3,0
STARLINK-35636,2025-240Q,2026-06-23T16:00:01.999584,15.34378374,.00010067,53.1585,290.6574,83.5810,242.7239,0,U,66160,999,583,.56660588E-3,.18802E-3,0
STARLINK-35635,2025-240R,2026-06-23T17:41:28.297248,15.30221551,.00010687,53.1572,290.3195,96.3265,263.7858,0,U,66161,999,3822,.62399605E-3,.18179E-3,0
STARLINK-35633,2025-240S,2026-06-24T02:41:28.716288,15.30207973,.00009057,53.1600,288.3774,91.3487,268.7617,0,U,66162,999,3828,.45997069E-3,.13292E-3,0
STARLINK-35607,2025-240T,2026-06-23T13:48:53.424576,15.34405895,.00016572,53.1598,289.3033,89.5403,270.5789,0,U,66163,999,3822,.71820469E-3,.23972E-3,0
STARLINK-35614,2025-240U,2026-06-24T01:09:42.168672,15.34408892,.00012043,53.1590,287.2772,75.9207,284.1929,0,U,66164,999,3829,.94106525E-3,.31562E-3,0
STARLINK-35575,2025-240V,2026-06-23T14:04:02.546112,15.34412696,.00023351,53.1599,289.3692,88.2772,271.8499,0,U,66165,999,3822,.85924135E-3,.28779E-3,0
STARLINK-35624,2025-240W,2026-06-23T12:02:58.653600,15.34398334,.00009828,53.1583,289.5539,97.9251,262.1863,0,U,66166,999,3821,.7731371E-3,.25834E-3,0
STARLINK-35641,2025-240X,2026-06-24T01:06:39.691872,15.34422366,.00005157,53.1599,287.2618,305.6156,54.4798,0,U,66167,999,3829,.75626265E-3,.2528E-3,0
STARLINK-35578,2025-240Y,2026-06-24T21:37:42.116160,15.30203848,.0001349,53.1584,284.7678,101.0150,259.1003,0,U,66168,999,3840,.85998E-3,.252E-3,0
STARLINK-35638,2025-240Z,2026-06-23T14:39:26.697888,15.30207829,.00002843,53.1579,290.9382,63.9166,296.1864,0,U,66169,999,3820,.3582109E-3,.10268E-3,0
STARLINK-35585,2025-240AA,2026-06-24T21:32:04.005312,15.34420295,.0000774,53.1590,283.3303,114.1822,245.9261,0,U,66170,999,3842,.79739E-3,.26678E-3,0
STARLINK-35606,2025-240AB,2026-06-23T19:54:58.761792,15.34421973,.00011696,53.1592,288.0442,87.7280,272.3856,0,U,66171,999,3826,.92457335E-3,.31013E-3,0
STARLINK-35627,2025-240AC,2026-06-23T14:25:46.081056,15.30221891,.00007284,53.1596,290.8784,43.5458,316.5600,0,U,66172,999,3820,.88818207E-3,.26056E-3,0
STARLINK-35634,2025-240AD,2026-06-23T13:57:58.890240,15.34418440,.00020628,53.1594,289.3410,84.7521,275.3717,0,U,66173,999,3822,.75602031E-3,.25269E-3,0
STARLINK-35363,2025-243B,2026-06-25T02:43:22.232064,15.34381702,.0001197,53.1594,106.0821,68.5485,291.5645,0,U,66178,999,3710,.13541E-2,.45626E-3,0
STARLINK-35346,2025-243C,2026-06-25T02:16:04.262592,15.34443130,.0001152,53.1586,105.9663,79.2488,280.8644,0,U,66179,999,3710,.78076E-3,.26131E-3,0
STARLINK-35335,2025-243D,2026-06-25T04:00:00.999072,15.34189277,.0003661,53.1607,106.1305,67.0600,76.4058,0,U,66180,999,586,.28238E-2,.95621E-3,0
STARLINK-35342,2025-243E,2026-06-25T03:04:32.928096,15.34405271,.0001873,53.1597,106.1716,101.4789,258.6424,0,U,66181,999,3710,.83333E-3,.27889E-3,0
STARLINK-35333,2025-243F,2026-06-25T02:46:21.957024,15.34417690,.0001165,53.1592,106.0959,104.1619,255.9513,0,U,66182,999,3710,.93934E-3,.31512E-3,0
STARLINK-35310,2025-243G,2026-06-25T02:19:05.888352,15.34416822,.0001295,53.1583,105.9774,89.1023,271.0128,0,U,66183,999,3710,.10138E-2,.3405E-3,0
STARLINK-35317,2025-243H,2026-06-25T02:25:09.761952,15.34418827,.0001234,53.1583,106.0051,90.9292,269.1852,0,U,66184,999,3710,.11228E-2,.37772E-3,0
STARLINK-35377,2025-243J,2026-06-25T02:28:11.183808,15.34414934,.0001167,53.1581,106.0220,91.3707,268.7429,0,U,66185,999,3710,.10799E-2,.36305E-3,0
STARLINK-35365,2025-243K,2026-06-25T04:00:00.999072,15.34361505,.0001345,53.1604,106.0663,71.7548,106.3918,0,U,66186,999,581,.1153E-2,.38733E-3,0
STARLINK-35350,2025-243L,2026-06-25T00:36:53.560224,15.30235135,.0000916,53.1571,106.9565,90.1216,269.9890,0,U,66187,999,3708,.1431E-2,.42311E-3,0
STARLINK-35041,2025-243M,2026-06-25T04:00:00.999072,15.34361089,.0001176,53.1605,105.9742,78.3032,146.3692,0,U,66188,999,578,.11276E-2,.37867E-3,0
STARLINK-34694,2025-243N,2026-06-25T01:37:29.125344,15.30213334,.0001256,53.1591,106.5065,103.9953,256.1187,0,U,66189,999,3709,.99671E-3,.29289E-3,0
STARLINK-34863,2025-243P,2026-06-25T01:55:43.233600,15.30221285,.0001181,53.1578,106.5871,72.4631,287.6499,0,U,66190,999,3709,.77184E-3,.22585E-3,0
STARLINK-35061,2025-243Q,2026-06-25T03:07:34.551264,15.34420979,.0001262,53.1606,106.1883,96.7011,263.4135,0,U,66191,999,3710,.70983E-3,.23698E-3,0
STARLINK-34937,2025-243R,2026-06-25T02:40:18.289056,15.34427089,.000114,53.1589,106.0723,100.7367,259.3764,0,U,66192,999,3710,.11839E-2,.39871E-3,0
STARLINK-35197,2025-243S,2026-06-25T02:53:19.188672,15.30103231,.0001705,53.1579,106.1207,104.8150,255.3039,0,U,66193,999,3710,-.11411E-2,-.33904E-3,0
STARLINK-35374,2025-243T,2026-06-25T03:04:44.123808,15.31725406,.0001208,53.1585,105.4649,85.0938,275.0201,0,U,66194,999,3711,.59972E-3,.18305E-3,0
STARLINK-34813,2025-243U,2026-06-25T03:55:55.801056,15.34420150,.0002536,53.1579,105.6856,53.2494,306.8741,0,U,66195,999,3711,.93207E-3,.31268E-3,0
STARLINK-35409,2025-243V,2026-06-25T03:06:58.931136,15.30208242,.0001362,53.1599,106.1839,87.6630,272.4526,0,U,66196,999,3710,.79134E-3,.23157E-3,0
STARLINK-35259,2025-243W,2026-06-25T01:42:02.775744,15.30217704,.0001326,53.1595,106.5276,122.8221,237.2907,0,U,66197,999,3709,.90475E-3,.26547E-3,0
STARLINK-35518,2025-243X,2026-06-25T02:23:04.373952,15.30215556,.0001329,53.1571,106.6999,79.2594,280.8556,0,U,66198,999,3709,.86404E-3,.25331E-3,0
STARLINK-35509,2025-243Y,2026-06-25T02:51:48.404736,15.30258428,.0001393,53.1585,106.1120,70.5470,289.5681,0,U,66199,999,3710,.23679E-2,.70568E-3,0
STARLINK-35551,2025-243Z,2026-06-25T02:56:22.602912,15.30186976,.0001519,53.1580,106.1328,84.6163,275.5011,0,U,66200,999,3710,.10743E-2,.31581E-3,0
STARLINK-35543,2025-243AA,2026-06-25T01:57:41.613696,15.31733463,.0001106,53.1577,105.8806,96.9183,263.1945,0,U,66201,999,3710,.22763E-2,.7102E-3,0
STARLINK-35534,2025-243AB,2026-06-25T03:05:27.365280,15.30224756,.0001197,53.1589,106.1726,108.7029,251.4102,0,U,66202,999,3710,.76648E-3,.22428E-3,0
STARLINK-35548,2025-243AC,2026-06-25T01:35:57.905952,15.30218566,.0001578,53.1596,106.4928,103.4218,256.6958,0,U,66203,999,3709,.74334E-3,.21734E-3,0
STARLINK-35490,2025-243AD,2026-06-22T09:28:46.773120,15.30639760,.0000775,53.1578,118.9754,276.8340,83.2573,0,U,66204,999,3668,.59556977E-2,.182907E-2,0
STARLINK-35748,2025-244A,2026-06-25T01:25:58.061856,15.34418016,.00011,53.1577,90.1089,100.9029,259.2097,0,U,66206,999,3811,.10505E-2,.35304E-3,0
STARLINK-35747,2025-244B,2026-06-25T00:43:40.094688,15.34423472,.0001135,53.1585,90.5832,98.6839,261.4293,0,U,66207,999,3810,.12084E-2,.40705E-3,0
